<?xml version="1.0" encoding="UTF-8"?>
<ndm xmlns:xsi="http://www.w3.org/2001/XMLSchema-instance" xsi:noNamespaceSchemaLocation="https://sanaregistry.org/r/ndmxml_unqualified/ndmxml-2.0.0-master-2.0.xsd">
<omm id="CCSDS_OMM_VERS" version="2.0">
<header><CREATION_DATE/><ORIGINATOR/></header><body><segment><metadata><OBJECT_NAME>ONEWEB-0697</OBJECT_NAME><OBJECT_ID>2024-188K</OBJECT_ID><CENTER_NAME>EARTH</CENTER_NAME><REF_FRAME>TEME</REF_FRAME><TIME_SYSTEM>UTC</TIME_SYSTEM><MEAN_ELEMENT_THEORY>SGP4</MEAN_ELEMENT_THEORY></metadata><data><meanElements><EPOCH>2024-12-19T04:20:06.443232</EPOCH><MEAN_MOTION>14.82949640</MEAN_MOTION><ECCENTRICITY>.0003869</ECCENTRICITY><INCLINATION>86.5711</INCLINATION><RA_OF_ASC_NODE>144.7463</RA_OF_ASC_NODE><ARG_OF_PERICENTER>64.8876</ARG_OF_PERICENTER><MEAN_ANOMALY>295.2748</MEAN_ANOMALY></meanElements><tleParameters><EPHEMERIS_TYPE>0</EPHEMERIS_TYPE><CLASSIFICATION_TYPE>U</CLASSIFICATION_TYPE><NORAD_CAT_ID>61603</NORAD_CAT_ID><ELEMENT_SET_NO>999</ELEMENT_SET_NO><REV_AT_EPOCH>1185</REV_AT_EPOCH><BSTAR>.51361E-3</BSTAR><MEAN_MOTION_DOT>.4193E-4</MEAN_MOTION_DOT><MEAN_MOTION_DDOT>0</MEAN_MOTION_DDOT></tleParameters></data></segment></body></omm>
<omm id="CCSDS_OMM_VERS" version="2.0">
<header><CREATION_DATE/><ORIGINATOR/></header><body><segment><metadata><OBJECT_NAME>ONEWEB-0698</OBJECT_NAME><OBJECT_ID>2024-188L</OBJECT_ID><CENTER_NAME>EARTH</CENTER_NAME><REF_FRAME>TEME</REF_FRAME><TIME_SYSTEM>UTC</TIME_SYSTEM><MEAN_ELEMENT_THEORY>SGP4</MEAN_ELEMENT_THEORY></metadata><data><meanElements><EPOCH>2024-12-19T03:59:14.034624</EPOCH><MEAN_MOTION>14.82951252</MEAN_MOTION><ECCENTRICITY>.0005997</ECCENTRICITY><INCLINATION>86.5790</INCLINATION><RA_OF_ASC_NODE>144.7754</RA_OF_ASC_NODE><ARG_OF_PERICENTER>35.4504</ARG_OF_PERICENTER><MEAN_ANOMALY>324.7117</MEAN_ANOMALY></meanElements><tleParameters><EPHEMERIS_TYPE>0</EPHEMERIS_TYPE><CLASSIFICATION_TYPE>U</CLASSIFICATION_TYPE><NORAD_CAT_ID>61604</NORAD_CAT_ID><ELEMENT_SET_NO>999</ELEMENT_SET_NO><REV_AT_EPOCH>1185</REV_AT_EPOCH><BSTAR>.50841E-3</BSTAR><MEAN_MOTION_DOT>.4151E-4</MEAN_MOTION_DOT><MEAN_MOTION_DDOT>0</MEAN_MOTION_DDOT></tleParameters></data></segment></body></omm>
<omm id="CCSDS_OMM_VERS" version="2.0">
<header><CREATION_DATE/><ORIGINATOR/></header><body><segment><metadata><OBJECT_NAME>ONEWEB-0699</OBJECT_NAME><OBJECT_ID>2024-188M</OBJECT_ID><CENTER_NAME>EARTH</CENTER_NAME><REF_FRAME>TEME</REF_FRAME><TIME_SYSTEM>UTC</TIME_SYSTEM><MEAN_ELEMENT_THEORY>SGP4</MEAN_ELEMENT_THEORY></metadata><data><meanElements><EPOCH>2024-12-19T12:00:00.999648</EPOCH><MEAN_MOTION>13.99051845</MEAN_MOTION><ECCENTRICITY>.0003798</ECCENTRICITY><INCLINATION>87.2045</INCLINATION><RA_OF_ASC_NODE>147.0402</RA_OF_ASC_NODE><ARG_OF_PERICENTER>50.2162</ARG_OF_PERICENTER><MEAN_ANOMALY>36.2122</MEAN_ANOMALY></meanElements><tleParameters><EPHEMERIS_TYPE>0</EPHEMERIS_TYPE><CLASSIFICATION_TYPE>U</CLASSIFICATION_TYPE><NORAD_CAT_ID>61605</NORAD_CAT_ID><ELEMENT_SET_NO>999</ELEMENT_SET_NO><REV_AT_EPOCH>988</REV_AT_EPOCH><BSTAR>-.78272E+0</BSTAR><MEAN_MOTION_DOT>-.1062548E-1</MEAN_MOTION_DOT><MEAN_MOTION_DDOT>0</MEAN_MOTION_DDOT></tleParameters></data></segment></body></omm>
<omm id="CCSDS_OMM_VERS" version="2.0">
<header><CREATION_DATE/><ORIGINATOR/></header><body><segment><metadata><OBJECT_NAME>ONEWEB-0700</OBJECT_NAME><OBJECT_ID>2024-188N</OBJECT_ID><CENTER_NAME>EARTH</CENTER_NAME><REF_FRAME>TEME</REF_FRAME><TIME_SYSTEM>UTC</TIME_SYSTEM><MEAN_ELEMENT_THEORY>SGP4</MEAN_ELEMENT_THEORY></metadata><data><meanElements><EPOCH>2024-12-19T12:00:00.999648</EPOCH><MEAN_MOTION>13.97280811</MEAN_MOTION><ECCENTRICITY>.0002603</ECCENTRICITY><INCLINATION>87.1837</INCLINATION><RA_OF_ASC_NODE>147.0381</RA_OF_ASC_NODE><ARG_OF_PERICENTER>48.3599</ARG_OF_PERICENTER><MEAN_ANOMALY>282.5295</MEAN_ANOMALY></meanElements><tleParameters><EPHEMERIS_TYPE>0</EPHEMERIS_TYPE><CLASSIFICATION_TYPE>U</CLASSIFICATION_TYPE><NORAD_CAT_ID>61606</NORAD_CAT_ID><ELEMENT_SET_NO>999</ELEMENT_SET_NO><REV_AT_EPOCH>993</REV_AT_EPOCH><BSTAR>-.78212E-1</BSTAR><MEAN_MOTION_DOT>-.107917E-2</MEAN_MOTION_DOT><MEAN_MOTION_DDOT>0</MEAN_MOTION_DDOT></tleParameters></data></segment></body></omm>
<omm id="CCSDS_OMM_VERS" version="2.0">
<header><CREATION_DATE/><ORIGINATOR/></header><body><segment><metadata><OBJECT_NAME>ONEWEB-0701</OBJECT_NAME><OBJECT_ID>2024-188P</OBJECT_ID><CENTER_NAME>EARTH</CENTER_NAME><REF_FRAME>TEME</REF_FRAME><TIME_SYSTEM>UTC</TIME_SYSTEM><MEAN_ELEMENT_THEORY>SGP4</MEAN_ELEMENT_THEORY></metadata><data><meanElements><EPOCH>2024-12-19T06:00:00.999648</EPOCH><MEAN_MOTION>13.97535896</MEAN_MOTION><ECCENTRICITY>.0003843</ECCENTRICITY><INCLINATION>87.1747</INCLINATION><RA_OF_ASC_NODE>147.0969</RA_OF_ASC_NODE><ARG_OF_PERICENTER>23.5736</ARG_OF_PERICENTER><MEAN_ANOMALY>331.8332</MEAN_ANOMALY></meanElements><tleParameters><EPHEMERIS_TYPE>0</EPHEMERIS_TYPE><CLASSIFICATION_TYPE>U</CLASSIFICATION_TYPE><NORAD_CAT_ID>61607</NORAD_CAT_ID><ELEMENT_SET_NO>999</ELEMENT_SET_NO><REV_AT_EPOCH>569</REV_AT_EPOCH><BSTAR>.26902E-1</BSTAR><MEAN_MOTION_DOT>.38038E-3</MEAN_MOTION_DOT><MEAN_MOTION_DDOT>0</MEAN_MOTION_DDOT></tleParameters></data></segment></body></omm>
<omm id="CCSDS_OMM_VERS" version="2.0">
<header><CREATION_DATE/><ORIGINATOR/></header><body><segment><metadata><OBJECT_NAME>ONEWEB-0702</OBJECT_NAME><OBJECT_ID>2024-188Q</OBJECT_ID><CENTER_NAME>EARTH</CENTER_NAME><REF_FRAME>TEME</REF_FRAME><TIME_SYSTEM>UTC</TIME_SYSTEM><MEAN_ELEMENT_THEORY>SGP4</MEAN_ELEMENT_THEORY></metadata><data><meanElements><EPOCH>2024-12-19T04:07:25.883904</EPOCH><MEAN_MOTION>14.82989298</MEAN_MOTION><ECCENTRICITY>.0006016</ECCENTRICITY><INCLINATION>86.5810</INCLINATION><RA_OF_ASC_NODE>144.7901</RA_OF_ASC_NODE><ARG_OF_PERICENTER>34.5041</ARG_OF_PERICENTER><MEAN_ANOMALY>325.6572</MEAN_ANOMALY></meanElements><tleParameters><EPHEMERIS_TYPE>0</EPHEMERIS_TYPE><CLASSIFICATION_TYPE>U</CLASSIFICATION_TYPE><NORAD_CAT_ID>61608</NORAD_CAT_ID><ELEMENT_SET_NO>999</ELEMENT_SET_NO><REV_AT_EPOCH>1185</REV_AT_EPOCH><BSTAR>.52209E-3</BSTAR><MEAN_MOTION_DOT>.4266E-4</MEAN_MOTION_DOT><MEAN_MOTION_DDOT>0</MEAN_MOTION_DDOT></tleParameters></data></segment></body></omm>
<omm id="CCSDS_OMM_VERS" version="2.0">
<header><CREATION_DATE/><ORIGINATOR/></header><body><segment><metadata><OBJECT_NAME>ONEWEB-0704</OBJECT_NAME><OBJECT_ID>2024-188R</OBJECT_ID><CENTER_NAME>EARTH</CENTER_NAME><REF_FRAME>TEME</REF_FRAME><TIME_SYSTEM>UTC</TIME_SYSTEM><MEAN_ELEMENT_THEORY>SGP4</MEAN_ELEMENT_THEORY></metadata><data><meanElements><EPOCH>2024-12-19T12:00:00.999648</EPOCH><MEAN_MOTION>13.97300433</MEAN_MOTION><ECCENTRICITY>.0003794</ECCENTRICITY><INCLINATION>87.1864</INCLINATION><RA_OF_ASC_NODE>147.0896</RA_OF_ASC_NODE><ARG_OF_PERICENTER>88.2304</ARG_OF_PERICENTER><MEAN_ANOMALY>187.2539</MEAN_ANOMALY></meanElements><tleParameters><EPHEMERIS_TYPE>0</EPHEMERIS_TYPE><CLASSIFICATION_TYPE>U</CLASSIFICATION_TYPE><NORAD_CAT_ID>61609</NORAD_CAT_ID><ELEMENT_SET_NO>999</ELEMENT_SET_NO><REV_AT_EPOCH>988</REV_AT_EPOCH><BSTAR>.41425E-2</BSTAR><MEAN_MOTION_DOT>.5823E-4</MEAN_MOTION_DOT><MEAN_MOTION_DDOT>0</MEAN_MOTION_DDOT></tleParameters></data></segment></body></omm>
<omm id="CCSDS_OMM_VERS" version="2.0">
<header><CREATION_DATE/><ORIGINATOR/></header><body><segment><metadata><OBJECT_NAME>ONEWEB-0705</OBJECT_NAME><OBJECT_ID>2024-188S</OBJECT_ID><CENTER_NAME>EARTH</CENTER_NAME><REF_FRAME>TEME</REF_FRAME><TIME_SYSTEM>UTC</TIME_SYSTEM><MEAN_ELEMENT_THEORY>SGP4</MEAN_ELEMENT_THEORY></metadata><data><meanElements><EPOCH>2024-12-19T12:00:00.999648</EPOCH><MEAN_MOTION>14.03500852</MEAN_MOTION><ECCENTRICITY>.0006182</ECCENTRICITY><INCLINATION>87.2335</INCLINATION><RA_OF_ASC_NODE>146.9565</RA_OF_ASC_NODE><ARG_OF_PERICENTER>63.0044</ARG_OF_PERICENTER><MEAN_ANOMALY>100.0656</MEAN_ANOMALY></meanElements><tleParameters><EPHEMERIS_TYPE>0</EPHEMERIS_TYPE><CLASSIFICATION_TYPE>U</CLASSIFICATION_TYPE><NORAD_CAT_ID>61610</NORAD_CAT_ID><ELEMENT_SET_NO>999</ELEMENT_SET_NO><REV_AT_EPOCH>1002</REV_AT_EPOCH><BSTAR>-.73005E+0</BSTAR><MEAN_MOTION_DOT>-.1072133E-1</MEAN_MOTION_DOT><MEAN_MOTION_DDOT>0</MEAN_MOTION_DDOT></tleParameters></data></segment></body></omm>

</ndm>
