ONEWEB-0697             
1 61603U 24188K   24354.18063013  .00004193  00000+0  51361-3 0  9994
2 61603  86.5711 144.7463 0003869  64.8876 295.2748 14.82949640 11859
ONEWEB-0698             
1 61604U 24188L   24354.16613466  .00004151  00000+0  50841-3 0  9992
2 61604  86.5790 144.7754 0005997  35.4504 324.7117 14.82951252 11856
ONEWEB-0699             
1 61605U 24188M   24354.50001157 -.01062548  00000+0 -78272+0 0  9990
2 61605  87.2045 147.0402 0003798  50.2162  36.2122 13.99051845  9883
ONEWEB-0700             
1 61606U 24188N   24354.50001157 -.00107917  00000+0 -78212-1 0  9996
2 61606  87.1837 147.0381 0002603  48.3599 282.5295 13.97280811  9932
ONEWEB-0701             
1 61607U 24188P   24354.25001157  .00038038  00000+0  26902-1 0  9993
2 61607  87.1747 147.0969 0003843  23.5736 331.8332 13.97535896  5695
ONEWEB-0702             
1 61608U 24188Q   24354.17182736  .00004266  00000+0  52209-3 0  9995
2 61608  86.5810 144.7901 0006016  34.5041 325.6572 14.82989298 11852
ONEWEB-0704             
1 61609U 24188R   24354.50001157  .00005823  00000+0  41425-2 0  9997
2 61609  87.1864 147.0896 0003794  88.2304 187.2539 13.97300433  9884
ONEWEB-0705             
1 61610U 24188S   24354.50001157 -.01072133  00000+0 -73005+0 0  9996
2 61610  87.2335 146.9565 0006182  63.0044 100.0656 14.03500852 10023
